STARLINK-1366           
1 45569U 20025AQ  26068.20531678  .00111184  00000+0  70244-3 0  9997
2 45569  53.0440  40.9129 0008507  56.1589 304.0238 15.75756697325969
STARLINK-36394          
1 67566U 26016F   26068.71610966  .00210519  00000+0  13748-2 0  9995
2 67566  97.2853 129.1435 0001385  80.6821 279.4601 15.75240485  6807
